STARLINK-32308          
1 61663U 24193C   26068.44636720  .00004453  00000+0  16242-3 0  9998
2 61663  53.1602  91.8332 0001101  88.1273 271.9854 15.30190514 76490
TRANSPORTER-12 OBJECT AZ
1 62656U 25009AZ  26068.71026235  .00016057  00000+0  54903-3 0  9991
2 62656  97.3981 151.9913 0000987  45.3581 314.7740 15.30349724 63792
